{
    "links": {
        "self": "http://www.neowsapp.com/rest/v1/neo/3742132?api_key=iIulBulltgU6a56xZRHN4H3l9WmuAYTsLGpBGhQ2"
    },
    "id": "3742132",
    "neo_reference_id": "3742132",
    "name": "(2016 CH32)",
    "designation": "2016 CH32",
    "nasa_jpl_url": "http://ssd.jpl.nasa.gov/sbdb.cgi?sstr=3742132",
    "absolute_magnitude_h": 23.9,
    "estimated_diameter": {
        "kilometers": {
            "estimated_diameter_min": 0.04411182,
            "estimated_diameter_max": 0.0986370281
        },
        "meters": {
            "estimated_diameter_min": 44.1118199997,
            "estimated_diameter_max": 98.6370281305
        },
        "miles": {
            "estimated_diameter_min": 0.0274098057,
            "estimated_diameter_max": 0.0612901888
        },
        "feet": {
            "estimated_diameter_min": 144.7238235278,
            "estimated_diameter_max": 323.6123073718
        }
    },
    "is_potentially_hazardous_asteroid": false,
    "close_approach_data": [
        {
            "close_approach_date": "2016-02-10",
            "close_approach_date_full": "2016-Feb-10 13:28",
            "epoch_date_close_approach": 1455110880000,
            "relative_velocity": {
                "kilometers_per_second": "12.0467043777",
                "kilometers_per_hour": "43368.1357596426",
                "miles_per_hour": "26947.273022429"
            },
            "miss_distance": {
                "astronomical": "0.1563314543",
                "lunar": "60.8129357227",
                "kilometers": "23386852.577282341",
                "miles": "14531916.3376086658"
            },
            "orbiting_body": "Earth"
        }
    ],
    "orbital_data": {
        "orbit_id": "10",
        "orbit_determination_date": "2017-04-06 08:28:32",
        "first_observation_date": "2016-02-06",
        "last_observation_date": "2016-02-18",
        "data_arc_in_days": 12,
        "observations_used": 53,
        "orbit_uncertainty": "8",
        "minimum_orbit_intersection": ".156127",
        "jupiter_tisserand_invariant": "4.681",
        "epoch_osculation": "2457428.5",
        "eccentricity": ".1776194205174703",
        "semi_major_axis": "1.389382187285269",
        "inclination": "22.99388623522035",
        "ascending_node_longitude": "320.8783352105871",
        "orbital_period": "598.1787995583835",
        "perihelion_distance": "1.142600928302364",
        "perihelion_argument": "176.7580848221282",
        "aphelion_distance": "1.636163446268174",
        "perihelion_time": "2457424.815583448299",
        "mean_anomaly": "2.217380421358283",
        "mean_motion": ".6018267452236298",
        "equinox": "J2000",
        "orbit_class": {
            "orbit_class_type": "AMO",
            "orbit_class_description": "Near-Earth asteroid orbits similar to that of 1221 Amor",
            "orbit_class_range": "1.017 AU < q (perihelion) < 1.3 AU"
        }
    },
    "is_sentry_object": false
}